[Satellite]
VERSION=1.1
NAME=QUAKESAT
NICKNAME=QUAKESAT
TLE1=1 27845U 03031F   11060.04121668  .00000119  00000-0  75727-4 0   533
TLE2=2 27845  98.7180  69.9000 0008893 164.6996 195.4447 14.20436228397447
